ONEWEB-0055             
1 45443U 20020V   21255.37542824  .00000477  00000-0  13097-2 0  9994
2 45443  87.8976   6.7345 0001658 100.9636 259.1678 13.11417634 74715
ONEWEB-0093             
1 45444U 20020W   21255.35145683 -.00000310  00000-0 -91046-3 0  9994
2 45444  87.8966   6.7875 0001761 100.3548 259.7778 13.11418447 74770
ONEWEB-0029             
1 45445U 20020X   21255.37324634  .00000556  00000-0  15322-2 0  9994
2 45445  87.8968   6.7627 0001667  85.2059 274.9259 13.11417960 74751
ONEWEB-0068             
1 45446U 20020Y   21255.34272259 -.00000496  00000-0 -14363-2 0  9996
2 45446  87.8967   6.7875 0001434 105.6566 254.4720 13.11418163 74693
ONEWEB-0046             
1 45447U 20020Z   21255.33837297 -.00000481  00000-0 -13941-2 0  9990
2 45447  87.8965   6.7933 0002030  93.0333 267.1027 13.11417392 74708
ONEWEB-0063             
1 45448U 20020AA  21255.36891148  .00000338  00000-0  91867-3 0  9992
2 45448  87.8962   6.7891 0002047  89.7634 270.3728 13.11418007 74790
ONEWEB-0019             
1 45449U 20020AB  21255.34490939 -.00000451  00000-0 -13079-2 0  9990
2 45449  87.8969   6.7692 0001888 101.4378 258.6962 13.11419480 74634
ONEWEB-0094             
1 45450U 20020AC  21255.30395287 -.00000290  00000-0 -78016-3 0  9992
2 45450  87.9175 351.5802 0001785 105.7412 254.3917 13.17648857 77311
ONEWEB-0087             
1 45451U 20020AD  21255.37761251  .00000503  00000-0  13824-2 0  9998
2 45451  87.8973   6.7905 0001104  92.4792 267.6462 13.11416572 74688
ONEWEB-0082             
1 45452U 20020AE  21255.37980990  .00000543  00000-0  14960-2 0  9998
2 45452  87.8965   6.7455 0001272  99.5274 260.5998 13.11417510 74778
ONEWEB-0050             
1 45453U 20020AF  21255.26839866  .00000680  00000-0  59545-4 0  9994
2 45453  87.5455 328.3612 0027796 138.9540 221.3789 14.94714676 80710
ONEWEB-0034             
1 45454U 20020AG  21255.39723705  .00000064  00000-0  14587-3 0  9995
2 45454  87.8963   6.7660 0001744  91.9936 268.1392 13.11415712 74696
ONEWEB-0060             
1 45455U 20020AH  21255.32963753 -.00000202  00000-0 -60713-3 0  9996
2 45455  87.8968   6.7789 0001741  96.3754 263.7573 13.11416590 74640
ONEWEB-0086             
1 45456U 20020AJ  21255.34925470 -.00000353  00000-0 -10322-2 0  9990
2 45456  87.8967   6.7724 0001463 100.3685 259.7608 13.11418991 74707
ONEWEB-0088             
1 45457U 20020AK  21255.32311422 -.00000051  00000-0 -17923-3 0  9995
2 45457  87.8960   6.8020 0001741  90.5135 269.6193 13.11414780 74633
ONEWEB-0102             
1 47258U 20100A   21255.31903016 -.00000236  00000-0 -69155-3 0  9999
2 47258  87.8941 336.4267 0001680 107.9069 252.2243 13.12442692 36646
ONEWEB-0109             
1 47259U 20100B   21255.25338139 -.00000399  00000-0 -11434-2 0  9997
2 47259  87.8932 336.2760 0001959 113.6209 246.5125 13.12443679 36463
ONEWEB-0110             
1 47260U 20100C   21254.74103198  .00081305  00000-0  22524+0 0  9990
2 47260  87.8963 336.4680 0006663  97.1935 262.9951 13.12052599 36568
ONEWEB-0111             
1 47261U 20100D   21255.30632486  .00000192  00000-0  49781-3 0  9994
2 47261  87.8965 336.3827 0001658 103.2758 256.8555 13.12439201 36475
ONEWEB-0114             
1 47262U 20100E   21255.26184474 -.00000351  00000-0 -10118-2 0  9999
2 47262  87.8896 336.2431 0002050 107.9505 252.1847 13.12443475 36423
ONEWEB-0117             
1 47263U 20100F   21255.25550058 -.00000381  00000-0 -10934-2 0  9993
2 47263  87.8916 336.3548 0001805 105.1592 254.9736 13.12441202 36434
ONEWEB-0118             
1 47264U 20100G   21255.28301763  .00000268  00000-0  70837-3 0  9995
2 47264  87.8949 336.3721 0002064 104.4839 255.6519 13.12440916 36638
ONEWEB-0119             
1 47265U 20100H   21255.31269471  .00000041  00000-0  79987-4 0  9994
2 47265  87.8939 336.4357 0001742 104.0713 256.0609 13.12438963 36615
ONEWEB-0120             
1 47266U 20100J   21255.26607985 -.00000268  00000-0 -78135-3 0  9991
2 47266  87.9013 336.3365 0002007 110.6950 249.4393 13.12443532 36635
ONEWEB-0121             
1 47267U 20100K   21255.25126389 -.00000350  00000-0 -10090-2 0  9992
2 47267  87.9022 336.3930 0001614 102.0843 258.0466 13.12443608 36544
ONEWEB-0122             
1 47268U 20100L   21255.24492618  .00000253  00000-0  66708-3 0  9991
2 47268  87.8933 336.3480 0001964  90.5119 269.6234 13.12442218 36457
ONEWEB-0123             
1 47269U 20100M   21255.31478191 -.00000077  00000-0 -24979-3 0  9990
2 47269  87.8955 336.3978 0001910 102.3558 257.7785 13.12440577 36606
ONEWEB-0124             
1 47270U 20100N   21255.29998711  .00000398  00000-0  10710-2 0  9995
2 47270  87.8923 336.3489 0001758 100.2139 259.9188 13.12444268 36480
ONEWEB-0125             
1 47271U 20100P   21255.27879427  .00000075  00000-0  17423-3 0  9997
2 47271  87.8999 336.3970 0001853  98.7435 261.3903 13.12444931 36541
ONEWEB-0126             
1 47272U 20100Q   21255.30420925  .00000283  00000-0  75166-3 0  9996
2 47272  87.8954 336.4463 0001854 111.0790 249.0537 13.12442952 36610
ONEWEB-0127             
1 47273U 20100R   21255.26819694 -.00000242  00000-0 -70677-3 0  9996
2 47273  87.8932 336.3614 0002013 110.1200 250.0145 13.12443660 36634
ONEWEB-0128             
1 47274U 20100S   21255.28726747  .00000322  00000-0  85883-3 0  9997
2 47274  87.8954 336.3604 0001644 106.4705 253.6604 13.12444660 36657
ONEWEB-0129             
1 47275U 20100T   21255.27031344 -.00000155  00000-0 -46692-3 0  9990
2 47275  87.8966 336.2954 0003653 131.0548 229.0897 13.12444243 36589
ONEWEB-0130             
1 47276U 20100U   21255.29573383  .00000404  00000-0  10873-2 0  9993
2 47276  87.8987 336.3602 0001591 116.4969 243.6323 13.12442512 36557
ONEWEB-0131             
1 47277U 20100V   21255.29151559  .00000424  00000-0  11429-2 0  9991
2 47277  87.8987 336.3083 0001875  96.2043 263.9299 13.12442362 36598
ONEWEB-0132             
1 47278U 20100W   21255.32538707 -.00000364  00000-0 -10472-2 0  9992
2 47278  87.8950 336.4327 0002116 100.8243 259.3124 13.12439678 36495
ONEWEB-0133             
1 47279U 20100X   21255.26397740 -.00000298  00000-0 -86323-3 0  9991
2 47279  87.8973 336.3254 0001868 109.5842 250.5488 13.12443561 36642
ONEWEB-0134             
1 47280U 20100Y   21255.23220988  .00000172  00000-0  44356-3 0  9998
2 47280  87.8940 336.3769 0001633  94.4221 265.7094 13.12442869 36610
ONEWEB-0135             
1 47281U 20100Z   21255.27668383  .00000036  00000-0  64246-4 0  9998
2 47281  87.8946 336.3532 0001845 111.2070 248.9256 13.12441727 36648
ONEWEB-0136             
1 47282U 20100AA  21255.29812717  .00000414  00000-0  11155-2 0  9992
2 47282  87.8969 336.3019 0001444 122.1668 237.9600 13.12382680 36578
ONEWEB-0137             
1 47283U 20100AB  21255.33597630 -.00000366  00000-0 -10531-2 0  9997
2 47283  87.8929 336.4202 0002280 104.8009 255.3372 13.12439821 36485
ONEWEB-0138             
1 47284U 20100AC  21255.23431164  .00000111  00000-0  27299-3 0  9992
2 47284  87.8933 336.4267 0001839 109.5775 250.5552 13.12443356 36556
ONEWEB-0139             
1 47285U 20100AD  21255.28091450  .00000220  00000-0  57691-3 0  9998
2 47285  87.8987 336.4266 0001657 106.8061 253.3249 13.12443178 36636
ONEWEB-0140             
1 47286U 20100AE  21255.30208291  .00000357  00000-0  95602-3 0  9990
2 47286  87.8962 336.3948 0001668 113.2524 246.8780 13.12440851 36603
ONEWEB-0141             
1 47287U 20100AF  21255.29362885  .00000443  00000-0  11951-2 0  9999
2 47287  87.8937 336.4040 0001857 107.7829 252.3503 13.12441879 36589
ONEWEB-0142             
1 47288U 20100AG  21255.24067383 -.00000108  00000-0 -33664-3 0  9996
2 47288  87.8963 336.4831 0002195  99.9016 260.2361 13.12441388 36577
ONEWEB-0143             
1 47289U 20100AH  21255.27243883 -.00000057  00000-0 -19446-3 0  9996
2 47289  87.8985 336.3414 0001852 105.1586 254.9747 13.12442224 36555
ONEWEB-0144             
1 47290U 20100AJ  21255.39950950 -.00000281  00000-0 -81724-3 0  9998
2 47290  87.8987 336.2315 0001603 100.8791 259.2518 13.12446415 36495
ONEWEB-0145             
1 47291U 20100AK  21255.28937954  .00000418  00000-0  11266-2 0  9999
2 47291  87.8961 336.3769 0001831 110.3642 249.7683 13.12442608 36673
ONEWEB-0146             
1 47292U 20100AL  21255.28514921  .00000386  00000-0  10379-2 0  9993
2 47292  87.8948 336.4132 0001738 108.0630 252.0688 13.12444349 36587
ONEWEB-0147             
1 47293U 20100AM  21255.25758745 -.00000370  00000-0 -10634-2 0  9994
2 47293  87.8964 336.4038 0001913 135.5391 224.5892 13.12445717 36474
ONEWEB-0115             
1 48042U 21025A   21255.58334491  .00033492  00000-0  91361-1 0  9992
2 48042  87.8903 305.7225 0001743  83.4238 321.6394 13.13458923  3293
ONEWEB-0152             
1 48043U 21025B   21255.58334491  .00034258  00000-0  93445-1 0  9999
2 48043  87.8865 305.6997 0001704  95.7887 249.2629 13.13456948  3289
ONEWEB-0153             
1 48044U 21025C   21255.58334491  .00034151  00000-0  93156-1 0  9991
2 48044  87.9010 305.8489 0002247  86.9835   8.0770 13.13456020  3299
ONEWEB-0154             
1 48045U 21025D   21255.58334491  .00034249  00000-0  93422-1 0  9996
2 48045  87.8850 305.7337 0002392 100.3828   4.7123 13.13456189  3286
ONEWEB-0116             
1 48046U 21025E   21255.58334491  .00035866  00000-0  97820-1 0  9999
2 48046  87.8851 305.7174 0001864  81.6560 183.3534 13.13453349  3289
ONEWEB-0150             
1 48047U 21025F   21255.58334491  .00033554  00000-0  91527-1 0  9990
2 48047  87.8861 305.7833 0002516  93.4987 301.5774 13.13458528  3286
ONEWEB-0107             
1 48048U 21025G   21255.58334491  .00033586  00000-0  91615-1 0  9994
2 48048  87.8887 305.7172 0002274 110.3317 274.7440 13.13458552  3286
ONEWEB-0101             
1 48049U 21025H   21255.58334491  .00035999  00000-0  98185-1 0  9994
2 48049  87.8867 305.8159 0002119  97.7882  87.3478 13.13450713  3295
